ONEWEB-0053             
1 45157U 20008AC  23303.85175472  .00000131  00000+0  33948-3 0  9996
2 45157  87.8915 226.9978 0002098  75.3079 284.8281 13.10377677182146
ONEWEB-0054             
1 45158U 20008AD  23303.81112569 -.00000455  00000+0 -13395-2 0  9995
2 45158  87.8913 226.9919 0001875  73.9164 286.2170 13.10367481182258
ONEWEB-0056             
1 45159U 20008AE  23303.86801222  .00000560  00000+0  15684-2 0  9990
2 45159  87.8911 226.9755 0002042  70.8321 289.3027 13.10369141183175
ONEWEB-0057             
1 45160U 20008AF  23304.17993355 -.00001176  00000+0 -34048-2 0  9997
2 45160  87.8933 226.9117 0001967  64.0221 296.1109 13.10363649183110
ONEWEB-0058             
1 45161U 20008AG  23303.86165302  .00000784  00000+0  22104-2 0  9998
2 45161  87.8917 227.0175 0001879  71.2972 288.8359 13.10370100182657
ONEWEB-0059             
1 45162U 20008AH  23303.85824603  .00000658  00000+0  18488-2 0  9994
2 45162  87.8913 226.9900 0001782  68.4137 291.7180 13.10374847182558
ONEWEB-0062             
1 45163U 20008AJ  23303.80949485 -.00000381  00000+0 -11284-2 0  9998
2 45163  87.8912 226.9870 0001845  76.5360 283.5973 13.10369965183164
ONEWEB-0065             
1 45164U 20008AK  23303.86313451  .00000645  00000+0  18115-2 0  9994
2 45164  87.8916 226.9724 0002009  74.3199 285.8150 13.10370665182852
